[{"CCSDS_OMM_VERS":"2.0","COMMENT":"GENERATED VIA SPACE-TRACK.ORG API","CREATION_DATE":"2020-08-22T16:55:12","ORIGINATOR":"18 SPCS","OBJECT_NAME":"ONEWEB-0007","OBJECT_ID":"2019-010D","CENTER_NAME":"EARTH","REF_FRAME":"TEME","TIME_SYSTEM":"UTC","MEAN_ELEMENT_THEORY":"SGP4","EPOCH":"2020-08-22T14:00:01.999872","MEAN_MOTION":"13.21790699","ECCENTRICITY":"0.00021220","INCLINATION":"87.9209","RA_OF_ASC_NODE":"321.1739","ARG_OF_PERICENTER":"102.8717","MEAN_ANOMALY":"264.5513","EPHEMERIS_TYPE":"0","CLASSIFICATION_TYPE":"U","NORAD_CAT_ID":"44060","ELEMENT_SET_NO":"999","REV_AT_EPOCH":"172","BSTAR":"0.08704900000000","MEAN_MOTION_DOT":"0.00036089","MEAN_MOTION_DDOT":"0.0000000000000","SEMIMAJOR_AXIS":"7556.024","PERIOD":"108.943","APOAPSIS":"1179.493","PERIAPSIS":"1176.286","OBJECT_TYPE":"PAYLOAD","RCS_SIZE":"LARGE","COUNTRY_CODE":"UK","LAUNCH_DATE":"2019-02-27","SITE":"FRGUI","DECAY_DATE":null,"FILE":"2806583","GP_ID":"159888288","TLE_LINE0":"0 ONEWEB-0007","TLE_LINE1":"1 44060U 19010D   20235.58335648 +.00036089 +00000-0 +87049-1 0  9994","TLE_LINE2":"2 44060 087.9209 321.1739 0002122 102.8717 264.5513 13.21790699001723"},{"CCSDS_OMM_VERS":"2.0","COMMENT":"GENERATED VIA SPACE-TRACK.ORG API","CREATION_DATE":"2020-08-23T01:13:26","ORIGINATOR":"18 SPCS","OBJECT_NAME":"ONEWEB-0007","OBJECT_ID":"2019-010D","CENTER_NAME":"EARTH","REF_FRAME":"TEME","TIME_SYSTEM":"UTC","MEAN_ELEMENT_THEORY":"SGP4","EPOCH":"2020-08-22T22:00:00.999936","MEAN_MOTION":"13.21828566","ECCENTRICITY":"0.00021720","INCLINATION":"87.9206","RA_OF_ASC_NODE":"321.1080","ARG_OF_PERICENTER":"102.9343","MEAN_ANOMALY":"49.6842","EPHEMERIS_TYPE":"0","CLASSIFICATION_TYPE":"U","NORAD_CAT_ID":"44060","ELEMENT_SET_NO":"999","REV_AT_EPOCH":"170","BSTAR":"-0.09931900000000","MEAN_MOTION_DOT":"-0.00040823","MEAN_MOTION_DDOT":"0.0000000000000","SEMIMAJOR_AXIS":"7555.880","PERIOD":"108.939","APOAPSIS":"1179.386","PERIAPSIS":"1176.104","OBJECT_TYPE":"PAYLOAD","RCS_SIZE":"LARGE","COUNTRY_CODE":"UK","LAUNCH_DATE":"2019-02-27","SITE":"FRGUI","DECAY_DATE":null,"FILE":"2806767","GP_ID":"159934409","TLE_LINE0":"0 ONEWEB-0007","TLE_LINE1":"1 44060U 19010D   20235.91667824 -.00040823 +00000-0 -99319-1 0  9991","TLE_LINE2":"2 44060 087.9206 321.1080 0002172 102.9343 049.6842 13.21828566001700"},{"CCSDS_OMM_VERS":"2.0","COMMENT":"GENERATED VIA SPACE-TRACK.ORG API","CREATION_DATE":"2020-08-23T14:16:09","ORIGINATOR":"18 SPCS","OBJECT_NAME":"ONEWEB-0007","OBJECT_ID":"2019-010D","CENTER_NAME":"EARTH","REF_FRAME":"TEME","TIME_SYSTEM":"UTC","MEAN_ELEMENT_THEORY":"SGP4","EPOCH":"2020-08-23T14:00:01.999872","MEAN_MOTION":"13.21788066","ECCENTRICITY":"0.00021170","INCLINATION":"87.9202","RA_OF_ASC_NODE":"320.9743","ARG_OF_PERICENTER":"103.0965","MEAN_ANOMALY":"340.1118","EPHEMERIS_TYPE":"0","CLASSIFICATION_TYPE":"U","NORAD_CAT_ID":"44060","ELEMENT_SET_NO":"999","REV_AT_EPOCH":"7192","BSTAR":"0.09350000000000","MEAN_MOTION_DOT":"0.00038773","MEAN_MOTION_DDOT":"0.0000000000000","SEMIMAJOR_AXIS":"7556.034","PERIOD":"108.943","APOAPSIS":"1179.499","PERIAPSIS":"1176.300","OBJECT_TYPE":"PAYLOAD","RCS_SIZE":"LARGE","COUNTRY_CODE":"UK","LAUNCH_DATE":"2019-02-27","SITE":"FRGUI","DECAY_DATE":null,"FILE":"2806998","GP_ID":"159938693","TLE_LINE0":"0 ONEWEB-0007","TLE_LINE1":"1 44060U 19010D   20236.58335648  .00038773  00000-0  93500-1 0  9996","TLE_LINE2":"2 44060  87.9202 320.9743 0002117 103.0965 340.1118 13.21788066 71926"},{"CCSDS_OMM_VERS":"2.0","COMMENT":"GENERATED VIA SPACE-TRACK.ORG API","CREATION_DATE":"2020-08-24T01:08:22","ORIGINATOR":"18 SPCS","OBJECT_NAME":"ONEWEB-0007","OBJECT_ID":"2019-010D","CENTER_NAME":"EARTH","REF_FRAME":"TEME","TIME_SYSTEM":"UTC","MEAN_ELEMENT_THEORY":"SGP4","EPOCH":"2020-08-23T22:00:00.999936","MEAN_MOTION":"13.21826129","ECCENTRICITY":"0.00021810","INCLINATION":"87.9200","RA_OF_ASC_NODE":"320.9084","ARG_OF_PERICENTER":"102.6311","MEAN_ANOMALY":"125.7710","EPHEMERIS_TYPE":"0","CLASSIFICATION_TYPE":"U","NORAD_CAT_ID":"44060","ELEMENT_SET_NO":"999","REV_AT_EPOCH":"171","BSTAR":"-0.09479600000000","MEAN_MOTION_DOT":"-0.00038970","MEAN_MOTION_DDOT":"0.0000000000000","SEMIMAJOR_AXIS":"7555.889","PERIOD":"108.940","APOAPSIS":"1179.402","PERIAPSIS":"1176.106","OBJECT_TYPE":"PAYLOAD","RCS_SIZE":"LARGE","COUNTRY_CODE":"UK","LAUNCH_DATE":"2019-02-27","SITE":"FRGUI","DECAY_DATE":null,"FILE":"2807374","GP_ID":"160006053","TLE_LINE0":"0 ONEWEB-0007","TLE_LINE1":"1 44060U 19010D   20236.91667824 -.00038970 +00000-0 -94796-1 0  9996","TLE_LINE2":"2 44060 087.9200 320.9084 0002181 102.6311 125.7710 13.21826129001711"},{"CCSDS_OMM_VERS":"2.0","COMMENT":"GENERATED VIA SPACE-TRACK.ORG API","CREATION_DATE":"2020-08-24T06:26:09","ORIGINATOR":"18 SPCS","OBJECT_NAME":"ONEWEB-0007","OBJECT_ID":"2019-010D","CENTER_NAME":"EARTH","REF_FRAME":"TEME","TIME_SYSTEM":"UTC","MEAN_ELEMENT_THEORY":"SGP4","EPOCH":"2020-08-24T06:00:00.999648","MEAN_MOTION":"13.21816254","ECCENTRICITY":"0.00021200","INCLINATION":"87.9199","RA_OF_ASC_NODE":"320.8419","ARG_OF_PERICENTER":"103.4771","MEAN_ANOMALY":"270.1832","EPHEMERIS_TYPE":"0","CLASSIFICATION_TYPE":"U","NORAD_CAT_ID":"44060","ELEMENT_SET_NO":"999","REV_AT_EPOCH":"7201","BSTAR":"-0.00885890000000","MEAN_MOTION_DOT":"-0.00003644","MEAN_MOTION_DDOT":"0.0000000000000","SEMIMAJOR_AXIS":"7555.927","PERIOD":"108.941","APOAPSIS":"1179.394","PERIAPSIS":"1176.190","OBJECT_TYPE":"PAYLOAD","RCS_SIZE":"LARGE","COUNTRY_CODE":"UK","LAUNCH_DATE":"2019-02-27","SITE":"FRGUI","DECAY_DATE":null,"FILE":"2807411","GP_ID":"160009382","TLE_LINE0":"0 ONEWEB-0007","TLE_LINE1":"1 44060U 19010D   20237.25001157 -.00003644  00000-0 -88589-2 0  9999","TLE_LINE2":"2 44060  87.9199 320.8419 0002120 103.4771 270.1832 13.21816254 72010"},{"CCSDS_OMM_VERS":"2.0","COMMENT":"GENERATED VIA SPACE-TRACK.ORG API","CREATION_DATE":"2020-08-24T19:45:39","ORIGINATOR":"18 SPCS","OBJECT_NAME":"ONEWEB-0007","OBJECT_ID":"2019-010D","CENTER_NAME":"EARTH","REF_FRAME":"TEME","TIME_SYSTEM":"UTC","MEAN_ELEMENT_THEORY":"SGP4","EPOCH":"2020-08-24T14:00:01.000224","MEAN_MOTION":"13.21786941","ECCENTRICITY":"0.00021070","INCLINATION":"87.9199","RA_OF_ASC_NODE":"320.7746","ARG_OF_PERICENTER":"102.5103","MEAN_ANOMALY":"56.4235","EPHEMERIS_TYPE":"0","CLASSIFICATION_TYPE":"U","NORAD_CAT_ID":"44060","ELEMENT_SET_NO":"999","REV_AT_EPOCH":"171","BSTAR":"0.09772900000000","MEAN_MOTION_DOT":"0.00040533","MEAN_MOTION_DDOT":"0.0000000000000","SEMIMAJOR_AXIS":"7556.039","PERIOD":"108.943","APOAPSIS":"1179.496","PERIAPSIS":"1176.312","OBJECT_TYPE":"PAYLOAD","RCS_SIZE":"LARGE","COUNTRY_CODE":"UK","LAUNCH_DATE":"2019-02-27","SITE":"FRGUI","DECAY_DATE":null,"FILE":"2807777","GP_ID":"160036378","TLE_LINE0":"0 ONEWEB-0007","TLE_LINE1":"1 44060U 19010D   20237.58334491 +.00040533 +00000-0 +97729-1 0  9996","TLE_LINE2":"2 44060 087.9199 320.7746 0002107 102.5103 056.4235 13.21786941001716"},{"CCSDS_OMM_VERS":"2.0","COMMENT":"GENERATED VIA SPACE-TRACK.ORG API","CREATION_DATE":"2020-08-25T05:18:38","ORIGINATOR":"18 SPCS","OBJECT_NAME":"ONEWEB-0007","OBJECT_ID":"2019-010D","CENTER_NAME":"EARTH","REF_FRAME":"TEME","TIME_SYSTEM":"UTC","MEAN_ELEMENT_THEORY":"SGP4","EPOCH":"2020-08-24T22:00:00.999936","MEAN_MOTION":"13.21824473","ECCENTRICITY":"0.00021980","INCLINATION":"87.9200","RA_OF_ASC_NODE":"320.7086","ARG_OF_PERICENTER":"102.0412","MEAN_ANOMALY":"202.1415","EPHEMERIS_TYPE":"0","CLASSIFICATION_TYPE":"U","NORAD_CAT_ID":"44060","ELEMENT_SET_NO":"999","REV_AT_EPOCH":"173","BSTAR":"-0.08666900000000","MEAN_MOTION_DOT":"-0.00035640","MEAN_MOTION_DDOT":"0.0000000000000","SEMIMAJOR_AXIS":"7555.896","PERIOD":"108.940","APOAPSIS":"1179.421","PERIAPSIS":"1176.100","OBJECT_TYPE":"PAYLOAD","RCS_SIZE":"LARGE","COUNTRY_CODE":"UK","LAUNCH_DATE":"2019-02-27","SITE":"FRGUI","DECAY_DATE":null,"FILE":"2807960","GP_ID":"160081595","TLE_LINE0":"0 ONEWEB-0007","TLE_LINE1":"1 44060U 19010D   20237.91667824 -.00035640 +00000-0 -86669-1 0  9998","TLE_LINE2":"2 44060 087.9200 320.7086 0002198 102.0412 202.1415 13.21824473001739"},{"CCSDS_OMM_VERS":"2.0","COMMENT":"GENERATED VIA SPACE-TRACK.ORG API","CREATION_DATE":"2020-08-25T17:47:59","ORIGINATOR":"18 SPCS","OBJECT_NAME":"ONEWEB-0007","OBJECT_ID":"2019-010D","CENTER_NAME":"EARTH","REF_FRAME":"TEME","TIME_SYSTEM":"UTC","MEAN_ELEMENT_THEORY":"SGP4","EPOCH":"2020-08-25T14:00:01.999872","MEAN_MOTION":"13.21788439","ECCENTRICITY":"0.00021130","INCLINATION":"87.9202","RA_OF_ASC_NODE":"320.5747","ARG_OF_PERICENTER":"101.5618","MEAN_ANOMALY":"133.2082","EPHEMERIS_TYPE":"0","CLASSIFICATION_TYPE":"U","NORAD_CAT_ID":"44060","ELEMENT_SET_NO":"999","REV_AT_EPOCH":"171","BSTAR":"0.09737100000000","MEAN_MOTION_DOT":"0.00040385","MEAN_MOTION_DDOT":"0.0000000000000","SEMIMAJOR_AXIS":"7556.033","PERIOD":"108.943","APOAPSIS":"1179.495","PERIAPSIS":"1176.301","OBJECT_TYPE":"PAYLOAD","RCS_SIZE":"LARGE","COUNTRY_CODE":"UK","LAUNCH_DATE":"2019-02-27","SITE":"FRGUI","DECAY_DATE":null,"FILE":"2808324","GP_ID":"160128346","TLE_LINE0":"0 ONEWEB-0007","TLE_LINE1":"1 44060U 19010D   20238.58335648 +.00040385 +00000-0 +97371-1 0  9990","TLE_LINE2":"2 44060 087.9202 320.5747 0002113 101.5618 133.2082 13.21788439001715"}]